{"type": "FeatureCollection", "features": [ {"type": "Feature", "properties": {"norad_id": 31566, "name": "FENGYUN 1C DEB", "group": "fengyun-1c-debris", "lat": 64.08912180120093, "lon": -109.47306392012156, "alt_km": 772.6029067647751, "timestamp": "2025-12-18T10:51:26.090273+00:00", "meta": {"OBJECT_NAME": "FENGYUN 1C DEB", "OBJECT_ID": "1999-025BZH", "EPOCH": "2025-12-17T16:33:26.083872", "MEAN_MOTION": 14.37451896, "ECCENTRICITY": 0.0023013, "INCLINATION": 98.95, "RA_OF_ASC_NODE": 50.8051, "ARG_OF_PERICENTER": 339.7375, "MEAN_ANOMALY": 150.8804, "EPHEMERIS_TYPE": 0, "CLASSIFICATION_TYPE": "U", "NORAD_CAT_ID": 31566, "ELEMENT_SET_NO": 999, "REV_AT_EPOCH": 96462, "BSTAR": 0.0016030698, "MEAN_MOTION_DOT": 4.765e-05, "MEAN_MOTION_DDOT": 0}, "tle": {"line1": "1 31566U 99025BZH 25351.68988523  .00004765  00000+0  16031-2 0  9995", "line2": "2 31566  98.9500  50.8051 0023013 339.7375 150.8804 14.37451896964620"}}, "geometry": {"type": "Point", "coordinates": [-109.47306392012156, 64.08912180120093]}}, {"type": "Feature", "properties": {"norad_id": 31567, "name": "FENGYUN 1C DEB", "group": "fengyun-1c-debris", "lat": -26.46290562811301, "lon": 34.777659146086094, "alt_km": 916.79785480601, "timestamp": "2025-12-18T10:51:26.090283+00:00", "meta": {"OBJECT_NAME": "FENGYUN 1C DEB", "OBJECT_ID": "1999-025BZJ", "EPOCH": "2025-12-17T11:26:14.743392", "MEAN_MOTION": 13.9291605, "ECCENTRICITY": 0.01867132, "INCLINATION": 102.317, "RA_OF_ASC_NODE": 219.7268, "ARG_OF_PERICENTER": 297.4648, "MEAN_ANOMALY": 60.7625, "EPHEMERIS_TYPE": 0, "CLASSIFICATION_TYPE": "U", "NORAD_CAT_ID": 31567, "ELEMENT_SET_NO": 999, "REV_AT_EPOCH": 67475, "BSTAR": 0.0023166751, "MEAN_MOTION_DOT": 3.4e-05, "MEAN_MOTION_DDOT": 0}, "tle": {"line1": "1 31567U 99025BZJ 25351.47655953  .00003400  00000+0  23167-2 0  9994", "line2": "2 31567 102.3170 219.7268 0186713 297.4648  60.7625 13.92916050674750"}}, "geometry": {"type": "Point", "coordinates": [34.777659146086094, -26.46290562811301]}}, {"type": "Feature", "properties": {"norad_id": 31568, "name": "FENGYUN 1C DEB", "group": "fengyun-1c-debris", "lat": -58.54500013366693, "lon": 35.96372888858947, "alt_km": 951.6562538326634, "timestamp": "2025-12-18T10:51:26.090293+00:00", "meta": {"OBJECT_NAME": "FENGYUN 1C DEB", "OBJECT_ID": "1999-025BZK", "EPOCH": "2025-12-16T21:47:39.438240", "MEAN_MOTION": 14.03379275, "ECCENTRICITY": 0.01228745, "INCLINATION": 102.0487, "RA_OF_ASC_NODE": 234.3598, "ARG_OF_PERICENTER": 109.3987, "MEAN_ANOMALY": 252.0496, "EPHEMERIS_TYPE": 0, "CLASSIFICATION_TYPE": "U", "NORAD_CAT_ID": 31568, "ELEMENT_SET_NO": 999, "REV_AT_EPOCH": 94638, "BSTAR": 0.0023237781, "MEAN_MOTION_DOT": 3.818e-05, "MEAN_MOTION_DDOT": 0}, "tle": {"line1": "1 31568U 99025BZK 25350.90809535  .00003818  00000+0  23238-2 0  9991", "line2": "2 31568 102.0487 234.3598 0122874 109.3987 252.0496 14.03379275946381"}}, "geometry": {"type": "Point", "coordinates": [35.96372888858947, -58.54500013366693]}}, {"type": "Feature", "properties": {"norad_id": 31569, "name": "FENGYUN 1C DEB", "group": "fengyun-1c-debris", "lat": -73.80401935311949, "lon": -78.68806128224334, "alt_km": 919.8699622674922, "timestamp": "2025-12-18T10:51:26.090304+00:00", "meta": {"OBJECT_NAME": "FENGYUN 1C DEB", "OBJECT_ID": "1999-025BZL", "EPOCH": "2025-12-17T09:39:30.836736", "MEAN_MOTION": 13.95560448, "ECCENTRICITY": 0.01740525, "INCLINATION": 102.6149, "RA_OF_ASC_NODE": 150.3241, "ARG_OF_PERICENTER": 354.8436, "MEAN_ANOMALY": 34.4432, "EPHEMERIS_TYPE": 0, "CLASSIFICATION_TYPE": "U", "NORAD_CAT_ID": 31569, "ELEMENT_SET_NO": 999, "REV_AT_EPOCH": 93744, "BSTAR": 0.0018235826, "MEAN_MOTION_DOT": 2.742e-05, "MEAN_MOTION_DDOT": 0}, "tle": {"line1": "1 31569U 99025BZL 25351.40244024  .00002742  00000+0  18236-2 0  9991", "line2": "2 31569 102.6149 150.3241 0174052 354.8436  34.4432 13.95560448937449"}}, "geometry": {"type": "Point", "coordinates": [-78.68806128224334, -73.80401935311949]}}, {"type": "Feature", "properties": {"norad_id": 31570, "name": "FENGYUN 1C DEB", "group": "fengyun-1c-debris", "lat": 32.31136666253564, "lon": 25.718034356566303, "alt_km": 916.3031023559734, "timestamp": "2025-12-18T10:51:26.090314+00:00", "meta": {"OBJECT_NAME": "FENGYUN 1C DEB", "OBJECT_ID": "1999-025BZM", "EPOCH": "2025-12-15T20:21:47.018304", "MEAN_MOTION": 14.25278416, "ECCENTRICITY": 0.01547184, "INCLINATION": 102.5675, "RA_OF_ASC_NODE": 30.1124, "ARG_OF_PERICENTER": 216.2531, "MEAN_ANOMALY": 142.807, "EPHEMERIS_TYPE": 0, "CLASSIFICATION_TYPE": "U", "NORAD_CAT_ID": 31570, "ELEMENT_SET_NO": 999, "REV_AT_EPOCH": 63411, "BSTAR": 0.0020808441, "MEAN_MOTION_DOT": 5.475e-05, "MEAN_MOTION_DDOT": 0}, "tle": {"line1": "1 31570U 99025BZM 25349.84846086  .00005475  00000+0  20808-2 0  9998", "line2": "2 31570 102.5675  30.1124 0154718 216.2531 142.8070 14.25278416634118"}}, "geometry": {"type": "Point", "coordinates": [25.718034356566303, 32.31136666253564]}}, {"type": "Feature", "properties": {"norad_id": 31608, "name": "FENGYUN 1C DEB", "group": "fengyun-1c-debris", "lat": -68.59976943650422, "lon": 132.99204467067597, "alt_km": 615.4423615382166, "timestamp": "2025-12-18T10:51:26.090327+00:00", "meta": {"OBJECT_NAME": "FENGYUN 1C DEB", "OBJECT_ID": "1999-025BZN", "EPOCH": "2025-12-17T14:09:29.850912", "MEAN_MOTION": 14.85908283, "ECCENTRICITY": 0.01457059, "INCLINATION": 98.3797, "RA_OF_ASC_NODE": 109.9897, "ARG_OF_PERICENTER": 22.0076, "MEAN_ANOMALY": 338.7309, "EPHEMERIS_TYPE": 0, "CLASSIFICATION_TYPE": "U", "NORAD_CAT_ID": 31608, "ELEMENT_SET_NO": 999, "REV_AT_EPOCH": 98705, "BSTAR": 0.00045964647, "MEAN_MOTION_DOT": 4.79e-05, "MEAN_MOTION_DDOT": 0}, "tle": {"line1": "1 31608U 99025BZN 25351.58992883  .00004790  00000+0  45965-3 0  9992", "line2": "2 31608  98.3797 109.9897 0145705  22.0076 338.7309 14.85908283987055"}}, "geometry": {"type": "Point", "coordinates": [132.99204467067597, -68.59976943650422]}}, {"type": "Feature", "properties": {"norad_id": 31609, "name": "FENGYUN 1C DEB", "group": "fengyun-1c-debris", "lat": 54.28138597362151, "lon": -145.778401597018, "alt_km": 902.807001372028, "timestamp": "2025-12-18T10:51:26.090340+00:00", "meta": {"OBJECT_NAME": "FENGYUN 1C DEB", "OBJECT_ID": "1999-025BZP", "EPOCH": "2025-12-15T00:59:33.000288", "MEAN_MOTION": 14.15782518, "ECCENTRICITY": 0.00948096, "INCLINATION": 99.2167, "RA_OF_ASC_NODE": 17.645, "ARG_OF_PERICENTER": 313.866, "MEAN_ANOMALY": 74.7981, "EPHEMERIS_TYPE": 0, "CLASSIFICATION_TYPE": "U", "NORAD_CAT_ID": 31609, "ELEMENT_SET_NO": 999, "REV_AT_EPOCH": 66117, "BSTAR": 0.0017564085, "MEAN_MOTION_DOT": 3.557e-05, "MEAN_MOTION_DDOT": 0}, "tle": {"line1": "1 31609U 99025BZP 25349.04135417  .00003557  00000+0  17564-2 0  9996", "line2": "2 31609  99.2167  17.6450 0094809 313.8660  74.7981 14.15782518661174"}}, "geometry": {"type": "Point", "coordinates": [-145.778401597018, 54.28138597362151]}}, {"type": "Feature", "properties": {"norad_id": 31612, "name": "FENGYUN 1C DEB", "group": "fengyun-1c-debris", "lat": -37.80021033715561, "lon": 82.62038814952109, "alt_km": 371.6050198918365, "timestamp": "2025-12-18T10:51:26.090357+00:00", "meta": {"OBJECT_NAME": "FENGYUN 1C DEB", "OBJECT_ID": "1999-025BZS", "EPOCH": "2025-12-15T05:34:20.315712", "MEAN_MOTION": 15.71781669, "ECCENTRICITY": 0.00321406, "INCLINATION": 100.3339, "RA_OF_ASC_NODE": 265.9962, "ARG_OF_PERICENTER": 93.9662, "MEAN_ANOMALY": 266.5266, "EPHEMERIS_TYPE": 0, "CLASSIFICATION_TYPE": "U", "NORAD_CAT_ID": 31612, "ELEMENT_SET_NO": 999, "REV_AT_EPOCH": 44, "BSTAR": 0.0014945855, "MEAN_MOTION_DOT": 0.00203446, "MEAN_MOTION_DDOT": 0}, "tle": {"line1": "1 31612U 99025BZS 25349.23217958  .00203446  00000+0  14946-2 0  9992", "line2": "2 31612 100.3339 265.9962 0032140  93.9662 266.5266 15.71781669   440"}}, "geometry": {"type": "Point", "coordinates": [82.62038814952109, -37.80021033715561]}}, {"type": "Feature", "properties": {"norad_id": 31613, "name": "FENGYUN 1C DEB", "group": "fengyun-1c-debris", "lat": 56.238201970929396, "lon": 11.553090970201138, "alt_km": 799.9051712888067, "timestamp": "2025-12-18T10:51:26.090381+00:00", "meta": {"OBJECT_NAME": "FENGYUN 1C DEB", "OBJECT_ID": "1999-025BZT", "EPOCH": "2025-12-17T11:23:27.674304", "MEAN_MOTION": 13.63455514, "ECCENTRICITY": 0.03426627, "INCLINATION": 98.4241, "RA_OF_ASC_NODE": 177.8968, "ARG_OF_PERICENTER": 93.4924, "MEAN_ANOMALY": 270.5473, "EPHEMERIS_TYPE": 0, "CLASSIFICATION_TYPE": "U", "NORAD_CAT_ID": 31613, "ELEMENT_SET_NO": 999, "REV_AT_EPOCH": 91826, "BSTAR": 0.0010547449, "MEAN_MOTION_DOT": 1.205e-05, "MEAN_MOTION_DDOT": 0}, "tle": {"line1": "1 31613U 99025BZT 25351.47462586  .00001205  00000+0  10547-2 0  9993", "line2": "2 31613  98.4241 177.8968 0342662  93.4924 270.5473 13.63455514918265"}}, "geometry": {"type": "Point", "coordinates": [11.553090970201138, 56.238201970929396]}}, {"type": "Feature", "properties": {"norad_id": 31614, "name": "FENGYUN 1C DEB", "group": "fengyun-1c-debris", "lat": 46.50786240719102, "lon": -110.50448035050414, "alt_km": 560.2478670467517, "timestamp": "2025-12-18T10:51:26.090399+00:00", "meta": {"OBJECT_NAME": "FENGYUN 1C DEB", "OBJECT_ID": "1999-025BZU", "EPOCH": "2025-12-17T17:15:24.047712", "MEAN_MOTION": 14.9826263, "ECCENTRICITY": 0.00197666, "INCLINATION": 98.9753, "RA_OF_ASC_NODE": 258.2429, "ARG_OF_PERICENTER": 353.4144, "MEAN_ANOMALY": 60.441, "EPHEMERIS_TYPE": 0, "CLASSIFICATION_TYPE": "U", "NORAD_CAT_ID": 31614, "ELEMENT_SET_NO": 999, "REV_AT_EPOCH": 96504, "BSTAR": 0.0056127552, "MEAN_MOTION_DOT": 0.00067529, "MEAN_MOTION_DDOT": 0}, "tle": {"line1": "1 31614U 99025BZU 25351.71902833  .00067529  00000+0  56128-2 0  9991", "line2": "2 31614  98.9753 258.2429 0019766 353.4144  60.4410 14.98262630965043"}}, "geometry": {"type": "Point", "coordinates": [-110.50448035050414, 46.50786240719102]}}]}